[{"OBJECT_NAME":"STARLINK-32557","OBJECT_ID":"2024-222P","EPOCH":"2026-03-09T12:26:29.487840","MEAN_MOTION":15.27588888,"ECCENTRICITY":2.871e-5,"INCLINATION":42.9936,"RA_OF_ASC_NODE":126.5426,"ARG_OF_PERICENTER":322.7448,"MEAN_ANOMALY":37.3384,"EPHEMERIS_TYPE":0,"CLASSIFICATION_TYPE":"U","NORAD_CAT_ID":62127,"ELEMENT_SET_NO":999,"REV_AT_EPOCH":7289,"BSTAR":0.00073800129,"MEAN_MOTION_DOT":0.00020107,"MEAN_MOTION_DDOT":0},{"OBJECT_NAME":"TRANSPORTER-12 OBJECT BT","OBJECT_ID":"2025-009BT","EPOCH":"2026-03-09T17:08:24.281088","MEAN_MOTION":15.27872239,"ECCENTRICITY":0.00036816,"INCLINATION":97.4094,"RA_OF_ASC_NODE":151.5992,"ARG_OF_PERICENTER":313.5044,"MEAN_ANOMALY":46.5889,"EPHEMERIS_TYPE":0,"CLASSIFICATION_TYPE":"U","NORAD_CAT_ID":62674,"ELEMENT_SET_NO":999,"REV_AT_EPOCH":12136,"BSTAR":0.000510288,"MEAN_MOTION_DOT":0.00013824,"MEAN_MOTION_DDOT":0}]
