STARLINK-32557          
1 62127U 24222P   26068.51839685  .00020107  00000+0  73800-3 0  9997
2 62127  42.9936 126.5426 0000287 322.7448  37.3384 15.27588888 72890
TRANSPORTER-12 OBJECT BT
1 62674U 25009BT  26068.71416991  .00013824  00000+0  51029-3 0  9998
2 62674  97.4094 151.5992 0003682 313.5044  46.5889 15.27872239121360
